{
"type": "FeatureCollection",
"name": "urnerfahnen-standorte",
"crs": { "type": "name", "properties": { "name": "urn:ogc:def:crs:OGC:1.3:CRS84" } },
"features": [
{ "type": "Feature", "properties": { "lon": 8.54691, "lat": 47.0512, "typ": "Fahnenmast" }, "geometry": { "type": "Point", "coordinates": [ 8.54691, 47.0512 ] } },
{ "type": "Feature", "properties": { "lon": 8.54523, "lat": 47.04994, "typ": "Fahnenmast" }, "geometry": { "type": "Point", "coordinates": [ 8.54523, 47.04994 ] } },
{ "type": "Feature", "properties": { "lon": 8.55368, "lat": 47.05241, "typ": "Balkon/Fassade" }, "geometry": { "type": "Point", "coordinates": [ 8.55368, 47.05241 ] } },
{ "type": "Feature", "properties": { "lon": 8.55149, "lat": 47.05104, "typ": "Balkon/Fassade" }, "geometry": { "type": "Point", "coordinates": [ 8.55149, 47.05104 ] } },
{ "type": "Feature", "properties": { "lon": 8.57222, "lat": 47.05276, "typ": "Fahnenmast" }, "geometry": { "type": "Point", "coordinates": [ 8.57222, 47.05276 ] } },
{ "type": "Feature", "properties": { "lon": 8.57212, "lat": 47.05913, "typ": "Fahnenmast" }, "geometry": { "type": "Point", "coordinates": [ 8.57212, 47.05913 ] } },
{ "type": "Feature", "properties": { "lon": 8.58508, "lat": 47.05218, "typ": "Fahnenmast" }, "geometry": { "type": "Point", "coordinates": [ 8.58508, 47.05218 ] } },
{ "type": "Feature", "properties": { "lon": 8.55033, "lat": 47.04709, "typ": "Balkon/Fassade" }, "geometry": { "type": "Point", "coordinates": [ 8.55033, 47.04709 ] } },
{ "type": "Feature", "properties": { "lon": 7.90268, "lat": 47.36249, "typ": "Balkon/Fassade" }, "geometry": { "type": "Point", "coordinates": [ 7.90268, 47.36249 ] } },
{ "type": "Feature", "properties": { "lon": 8.59761, "lat": 46.99573, "typ": "Fahnenmast" }, "geometry": { "type": "Point", "coordinates": [ 8.59761, 46.99573 ] } },
{ "type": "Feature", "properties": { "lon": 8.60611, "lat": 46.99457, "typ": "Balkon/Fassade" }, "geometry": { "type": "Point", "coordinates": [ 8.60611, 46.99457 ] } },
{ "type": "Feature", "properties": { "lon": 8.24542, "lat": 46.8952, "typ": "Balkon/Fassade" }, "geometry": { "type": "Point", "coordinates": [ 8.24542, 46.8952 ] } },
{ "type": "Feature", "properties": { "lon": 8.59173, "lat": 46.9999, "typ": "Balkon/Fassade" }, "geometry": { "type": "Point", "coordinates": [ 8.59173, 46.9999 ] } },
{ "type": "Feature", "properties": { "lon": 8.54271, "lat": 47.04904, "typ": "Fahnenmast" }, "geometry": { "type": "Point", "coordinates": [ 8.54271, 47.04904 ] } },
{ "type": "Feature", "properties": { "lon": 8.62909, "lat": 47.0273, "typ": "Fahnenmast" }, "geometry": { "type": "Point", "coordinates": [ 8.62909, 47.0273 ] } },
{ "type": "Feature", "properties": { "lon": 7.69801, "lat": 46.90069, "typ": "Balkon/Fassade" }, "geometry": { "type": "Point", "coordinates": [ 7.69801, 46.90069 ] } },
{ "type": "Feature", "properties": { "lon": 8.5259, "lat": 47.20666, "typ": "Fahnenmast" }, "geometry": { "type": "Point", "coordinates": [ 8.5259, 47.20666 ] } },
{ "type": "Feature", "properties": { "lon": 8.51408, "lat": 47.1052, "typ": "Fahnenmast" }, "geometry": { "type": "Point", "coordinates": [ 8.51408, 47.1052 ] } },
{ "type": "Feature", "properties": { "lon": 8.71787, "lat": 47.15024, "typ": "Fahnenmast" }, "geometry": { "type": "Point", "coordinates": [ 8.71787, 47.15024 ] } },
{ "type": "Feature", "properties": { "lon": 8.71872, "lat": 47.14996, "typ": "Fahnenmast" }, "geometry": { "type": "Point", "coordinates": [ 8.71872, 47.14996 ] } },
{ "type": "Feature", "properties": { "lon": 8.62595, "lat": 46.89843, "typ": "Fahnenmast" }, "geometry": { "type": "Point", "coordinates": [ 8.62595, 46.89843 ] } },
{ "type": "Feature", "properties": { "lon": 8.63243, "lat": 46.87372, "typ": "Fahnenmast" }, "geometry": { "type": "Point", "coordinates": [ 8.63243, 46.87372 ] } },
{ "type": "Feature", "properties": { "lon": 8.59432, "lat": 46.89833, "typ": "Fahnenmast" }, "geometry": { "type": "Point", "coordinates": [ 8.59432, 46.89833 ] } },
{ "type": "Feature", "properties": { "lon": 8.62877, "lat": 46.89283, "typ": "Fahnenmast" }, "geometry": { "type": "Point", "coordinates": [ 8.62877, 46.89283 ] } },
{ "type": "Feature", "properties": { "lon": 8.62516, "lat": 46.89153, "typ": "Fahnenmast" }, "geometry": { "type": "Point", "coordinates": [ 8.62516, 46.89153 ] } },
{ "type": "Feature", "properties": { "lon": 8.63053, "lat": 46.86304, "typ": "Fahnenmast" }, "geometry": { "type": "Point", "coordinates": [ 8.63053, 46.86304 ] } },
{ "type": "Feature", "properties": { "lon": 8.79855, "lat": 46.77952, "typ": "Fahnenmast" }, "geometry": { "type": "Point", "coordinates": [ 8.79855, 46.77952 ] } },
{ "type": "Feature", "properties": { "lon": 8.65527, "lat": 46.86352, "typ": "Fahnenmast" }, "geometry": { "type": "Point", "coordinates": [ 8.65527, 46.86352 ] } },
{ "type": "Feature", "properties": { "lon": 8.67054, "lat": 46.79029, "typ": "Fahnenmast" }, "geometry": { "type": "Point", "coordinates": [ 8.67054, 46.79029 ] } },
{ "type": "Feature", "properties": { "lon": 8.6703, "lat": 46.78984, "typ": "Fahnenmast" }, "geometry": { "type": "Point", "coordinates": [ 8.6703, 46.78984 ] } },
{ "type": "Feature", "properties": { "lon": 8.66994, "lat": 46.78651, "typ": "Fahnenmast" }, "geometry": { "type": "Point", "coordinates": [ 8.66994, 46.78651 ] } },
{ "type": "Feature", "properties": { "lon": 8.59927, "lat": 46.70578, "typ": "Fahnenmast" }, "geometry": { "type": "Point", "coordinates": [ 8.59927, 46.70578 ] } },
{ "type": "Feature", "properties": { "lon": 8.63614, "lat": 46.87141, "typ": "Fahnenmast" }, "geometry": { "type": "Point", "coordinates": [ 8.63614, 46.87141 ] } },
{ "type": "Feature", "properties": { "lon": 8.62427, "lat": 46.88515, "typ": "Fahnenmast" }, "geometry": { "type": "Point", "coordinates": [ 8.62427, 46.88515 ] } },
{ "type": "Feature", "properties": { "lon": 8.72824, "lat": 46.8725, "typ": "Fahnenmast" }, "geometry": { "type": "Point", "coordinates": [ 8.72824, 46.8725 ] } },
{ "type": "Feature", "properties": { "lon": 8.67521, "lat": 47.10166, "typ": "Balkon/Fassade" }, "geometry": { "type": "Point", "coordinates": [ 8.67521, 47.10166 ] } },
{ "type": "Feature", "properties": { "lon": 8.48096, "lat": 46.96238, "typ": "Fahnenmast" }, "geometry": { "type": "Point", "coordinates": [ 8.48096, 46.96238 ] } },
{ "type": "Feature", "properties": { "lon": 8.61632, "lat": 47.00393, "typ": "Fahnenmast" }, "geometry": { "type": "Point", "coordinates": [ 8.61632, 47.00393 ] } },
{ "type": "Feature", "properties": { "lon": 7.72707, "lat": 47.52266, "typ": "Fahnenmast" }, "geometry": { "type": "Point", "coordinates": [ 7.72707, 47.52266 ] } },
{ "type": "Feature", "properties": { "lon": 8.62189, "lat": 46.95065, "typ": "Fahnenmast" }, "geometry": { "type": "Point", "coordinates": [ 8.62189, 46.95065 ] } },
{ "type": "Feature", "properties": { "lon": 8.1554, "lat": 47.0404, "typ": "Fahnenmast" }, "geometry": { "type": "Point", "coordinates": [ 8.1554, 47.0404 ] } },
{ "type": "Feature", "properties": { "lon": 8.64511, "lat": 47.00898, "typ": "Balkon/Fassade" }, "geometry": { "type": "Point", "coordinates": [ 8.64511, 47.00898 ] } },
{ "type": "Feature", "properties": { "lon": 8.75574, "lat": 46.97674, "typ": "Fahnenmast" }, "geometry": { "type": "Point", "coordinates": [ 8.75574, 46.97674 ] } },
{ "type": "Feature", "properties": { "lon": 8.76043, "lat": 46.97446, "typ": "Fahnenmast" }, "geometry": { "type": "Point", "coordinates": [ 8.76043, 46.97446 ] } },
{ "type": "Feature", "properties": { "lon": 8.62574, "lat": 46.90196, "typ": "Fahnenmast" }, "geometry": { "type": "Point", "coordinates": [ 8.62574, 46.90196 ] } },
{ "type": "Feature", "properties": { "lon": 8.52304, "lat": 47.16445, "typ": "Balkon/Fassade" }, "geometry": { "type": "Point", "coordinates": [ 8.52304, 47.16445 ] } },
{ "type": "Feature", "properties": { "lon": 8.47123, "lat": 47.18305, "typ": "Fahnenmast" }, "geometry": { "type": "Point", "coordinates": [ 8.47123, 47.18305 ] } },
{ "type": "Feature", "properties": { "lon": 8.52874, "lat": 47.20587, "typ": "Fahnenmast" }, "geometry": { "type": "Point", "coordinates": [ 8.52874, 47.20587 ] } },
{ "type": "Feature", "properties": { "lon": 8.30358, "lat": 47.02426, "typ": "Fahnenmast" }, "geometry": { "type": "Point", "coordinates": [ 8.30358, 47.02426 ] } },
{ "type": "Feature", "properties": { "lon": 8.22812, "lat": 47.2851, "typ": "Fahnenmast" }, "geometry": { "type": "Point", "coordinates": [ 8.22812, 47.2851 ] } },
{ "type": "Feature", "properties": { "lon": 8.28749, "lat": 47.22083, "typ": "Fahnenmast" }, "geometry": { "type": "Point", "coordinates": [ 8.28749, 47.22083 ] } },
{ "type": "Feature", "properties": { "lon": 8.28732, "lat": 47.05644, "typ": "Balkon/Fassade" }, "geometry": { "type": "Point", "coordinates": [ 8.28732, 47.05644 ] } },
{ "type": "Feature", "properties": { "lon": 8.58831, "lat": 46.66709, "typ": "Fahnenmast" }, "geometry": { "type": "Point", "coordinates": [ 8.58831, 46.66709 ] } },
{ "type": "Feature", "properties": { "lon": 8.59627, "lat": 46.63473, "typ": "Fahnenmast" }, "geometry": { "type": "Point", "coordinates": [ 8.59627, 46.63473 ] } },
{ "type": "Feature", "properties": { "lon": 8.63216, "lat": 46.87617, "typ": "Balkon/Fassade" }, "geometry": { "type": "Point", "coordinates": [ 8.63216, 46.87617 ] } },
{ "type": "Feature", "properties": { "lon": 8.6677, "lat": 46.79485, "typ": "Fahnenmast" }, "geometry": { "type": "Point", "coordinates": [ 8.6677, 46.79485 ] } },
{ "type": "Feature", "properties": { "lon": 8.72459, "lat": 46.99074, "typ": "Fahnenmast" }, "geometry": { "type": "Point", "coordinates": [ 8.72459, 46.99074 ] } },
{ "type": "Feature", "properties": { "lon": 8.67299, "lat": 47.10176, "typ": "Fahnenmast" }, "geometry": { "type": "Point", "coordinates": [ 8.67299, 47.10176 ] } },
{ "type": "Feature", "properties": { "lon": 8.82127, "lat": 46.87337, "typ": "Fahnenmast" }, "geometry": { "type": "Point", "coordinates": [ 8.82127, 46.87337 ] } },
{ "type": "Feature", "properties": { "lon": 8.71675, "lat": 46.90207, "typ": "Fahnenmast" }, "geometry": { "type": "Point", "coordinates": [ 8.71675, 46.90207 ] } },
{ "type": "Feature", "properties": { "lon": 8.67654, "lat": 46.90666, "typ": "Balkon/Fassade" }, "geometry": { "type": "Point", "coordinates": [ 8.67654, 46.90666 ] } },
{ "type": "Feature", "properties": { "lon": 8.63092, "lat": 46.89542, "typ": "Fahnenmast" }, "geometry": { "type": "Point", "coordinates": [ 8.63092, 46.89542 ] } },
{ "type": "Feature", "properties": { "lon": 8.02815, "lat": 47.18787, "typ": "Fahnenmast" }, "geometry": { "type": "Point", "coordinates": [ 8.02815, 47.18787 ] } },
{ "type": "Feature", "properties": { "lon": 8.62901, "lat": 46.89, "typ": "Fahnenmast" }, "geometry": { "type": "Point", "coordinates": [ 8.62901, 46.89 ] } },
{ "type": "Feature", "properties": { "lon": 8.43175, "lat": 47.19959, "typ": "Fahnenmast" }, "geometry": { "type": "Point", "coordinates": [ 8.43175, 47.19959 ] } },
{ "type": "Feature", "properties": { "lon": 8.62492, "lat": 46.89985, "typ": "Balkon/Fassade" }, "geometry": { "type": "Point", "coordinates": [ 8.62492, 46.89985 ] } },
{ "type": "Feature", "properties": { "lon": 8.64773, "lat": 46.87629, "typ": "Fahnenmast" }, "geometry": { "type": "Point", "coordinates": [ 8.64773, 46.87629 ] } },
{ "type": "Feature", "properties": { "lon": 8.62611, "lat": 46.8963, "typ": "Fahnenmast" }, "geometry": { "type": "Point", "coordinates": [ 8.62611, 46.8963 ] } },
{ "type": "Feature", "properties": { "lon": 8.75419, "lat": 47.1088, "typ": "Fahnenmast" }, "geometry": { "type": "Point", "coordinates": [ 8.75419, 47.1088 ] } },
{ "type": "Feature", "properties": { "lon": 8.27895, "lat": 46.95265, "typ": "Fahnenmast" }, "geometry": { "type": "Point", "coordinates": [ 8.27895, 46.95265 ] } },
{ "type": "Feature", "properties": { "lon": 8.59235, "lat": 46.63871, "typ": "Kandelaber" }, "geometry": { "type": "Point", "coordinates": [ 8.59235, 46.63871 ] } },
{ "type": "Feature", "properties": { "lon": 8.5922, "lat": 46.63915, "typ": "Kandelaber" }, "geometry": { "type": "Point", "coordinates": [ 8.5922, 46.63915 ] } },
{ "type": "Feature", "properties": { "lon": 8.58913, "lat": 46.63852, "typ": "Fahnenmast" }, "geometry": { "type": "Point", "coordinates": [ 8.58913, 46.63852 ] } },
{ "type": "Feature", "properties": { "lon": 8.58969, "lat": 46.63906, "typ": "Fahnenmast" }, "geometry": { "type": "Point", "coordinates": [ 8.58969, 46.63906 ] } },
{ "type": "Feature", "properties": { "lon": 8.59067, "lat": 46.63933, "typ": "Fahnenmast" }, "geometry": { "type": "Point", "coordinates": [ 8.59067, 46.63933 ] } },
{ "type": "Feature", "properties": { "lon": 8.59905, "lat": 46.6324, "typ": "Fahnenmast" }, "geometry": { "type": "Point", "coordinates": [ 8.59905, 46.6324 ] } },
{ "type": "Feature", "properties": { "lon": 8.59767, "lat": 46.63389, "typ": "Kandelaber" }, "geometry": { "type": "Point", "coordinates": [ 8.59767, 46.63389 ] } },
{ "type": "Feature", "properties": { "lon": 8.59662, "lat": 46.63295, "typ": "Kandelaber" }, "geometry": { "type": "Point", "coordinates": [ 8.59662, 46.63295 ] } },
{ "type": "Feature", "properties": { "lon": 8.59628, "lat": 46.63325, "typ": "Balkon/Fassade" }, "geometry": { "type": "Point", "coordinates": [ 8.59628, 46.63325 ] } },
{ "type": "Feature", "properties": { "lon": 8.63186, "lat": 46.86364, "typ": "Balkon/Fassade" }, "geometry": { "type": "Point", "coordinates": [ 8.63186, 46.86364 ] } },
{ "type": "Feature", "properties": { "lon": 8.4795, "lat": 47.04, "typ": "Fahnenmast" }, "geometry": { "type": "Point", "coordinates": [ 8.4795, 47.04 ] } },
{ "type": "Feature", "properties": { "lon": 8.57963, "lat": 46.93426, "typ": "Fahnenmast" }, "geometry": { "type": "Point", "coordinates": [ 8.57963, 46.93426 ] } },
{ "type": "Feature", "properties": { "lon": 8.59368, "lat": 46.89932, "typ": "Fahnenmast" }, "geometry": { "type": "Point", "coordinates": [ 8.59368, 46.89932 ] } },
{ "type": "Feature", "properties": { "lon": 8.63749, "lat": 47.02532, "typ": "Balkon/Fassade" }, "geometry": { "type": "Point", "coordinates": [ 8.63749, 47.02532 ] } },
{ "type": "Feature", "properties": { "lon": 8.55281, "lat": 47.05557, "typ": "Fahnenmast" }, "geometry": { "type": "Point", "coordinates": [ 8.55281, 47.05557 ] } },
{ "type": "Feature", "properties": { "lon": 8.59648, "lat": 46.63471, "typ": "Balkon/Fassade" }, "geometry": { "type": "Point", "coordinates": [ 8.59648, 46.63471 ] } },
{ "type": "Feature", "properties": { "lon": 8.62579, "lat": 46.86122, "typ": "Fahnenmast" }, "geometry": { "type": "Point", "coordinates": [ 8.62579, 46.86122 ] } },
{ "type": "Feature", "properties": { "lon": 8.67245, "lat": 46.7788, "typ": "Fahnenmast" }, "geometry": { "type": "Point", "coordinates": [ 8.67245, 46.7788 ] } },
{ "type": "Feature", "properties": { "lon": 8.75996, "lat": 46.86468, "typ": "Fahnenmast" }, "geometry": { "type": "Point", "coordinates": [ 8.75996, 46.86468 ] } },
{ "type": "Feature", "properties": { "lon": 8.75165, "lat": 46.867, "typ": "Fahnenmast" }, "geometry": { "type": "Point", "coordinates": [ 8.75165, 46.867 ] } },
{ "type": "Feature", "properties": { "lon": 8.74144, "lat": 46.87098, "typ": "Balkon/Fassade" }, "geometry": { "type": "Point", "coordinates": [ 8.74144, 46.87098 ] } },
{ "type": "Feature", "properties": { "lon": 8.7315, "lat": 46.87058, "typ": "Fahnenmast" }, "geometry": { "type": "Point", "coordinates": [ 8.7315, 46.87058 ] } },
{ "type": "Feature", "properties": { "lon": 8.71622, "lat": 46.87509, "typ": "Balkon/Fassade" }, "geometry": { "type": "Point", "coordinates": [ 8.71622, 46.87509 ] } },
{ "type": "Feature", "properties": { "lon": 8.69937, "lat": 46.87912, "typ": "Fahnenmast" }, "geometry": { "type": "Point", "coordinates": [ 8.69937, 46.87912 ] } },
{ "type": "Feature", "properties": { "lon": 8.68192, "lat": 46.87692, "typ": "Fahnenmast" }, "geometry": { "type": "Point", "coordinates": [ 8.68192, 46.87692 ] } },
{ "type": "Feature", "properties": { "lon": 8.66849, "lat": 46.87665, "typ": "Fahnenmast" }, "geometry": { "type": "Point", "coordinates": [ 8.66849, 46.87665 ] } },
{ "type": "Feature", "properties": { "lon": 8.64626, "lat": 46.82242, "typ": "Fahnenmast" }, "geometry": { "type": "Point", "coordinates": [ 8.64626, 46.82242 ] } },
{ "type": "Feature", "properties": { "lon": 8.64714, "lat": 46.82199, "typ": "Fahnenmast" }, "geometry": { "type": "Point", "coordinates": [ 8.64714, 46.82199 ] } },
{ "type": "Feature", "properties": { "lon": 8.6532, "lat": 46.86792, "typ": "Fahnenmast" }, "geometry": { "type": "Point", "coordinates": [ 8.6532, 46.86792 ] } },
{ "type": "Feature", "properties": { "lon": 8.64834, "lat": 46.83049, "typ": "Fahnenmast" }, "geometry": { "type": "Point", "coordinates": [ 8.64834, 46.83049 ] } },
{ "type": "Feature", "properties": { "lon": 8.64817, "lat": 46.83058, "typ": "Fahnenmast" }, "geometry": { "type": "Point", "coordinates": [ 8.64817, 46.83058 ] } },
{ "type": "Feature", "properties": { "lon": 8.64818, "lat": 46.83094, "typ": "Fahnenmast" }, "geometry": { "type": "Point", "coordinates": [ 8.64818, 46.83094 ] } },
{ "type": "Feature", "properties": { "lon": 8.64569, "lat": 46.82851, "typ": "Fahnenmast" }, "geometry": { "type": "Point", "coordinates": [ 8.64569, 46.82851 ] } },
{ "type": "Feature", "properties": { "lon": 8.63999, "lat": 46.87381, "typ": "Fahnenmast" }, "geometry": { "type": "Point", "coordinates": [ 8.63999, 46.87381 ] } },
{ "type": "Feature", "properties": { "lon": 8.64061, "lat": 46.88567, "typ": "Fahnenmast" }, "geometry": { "type": "Point", "coordinates": [ 8.64061, 46.88567 ] } },
{ "type": "Feature", "properties": { "lon": 8.91389, "lat": 47.06674, "typ": "Fahnenmast" }, "geometry": { "type": "Point", "coordinates": [ 8.91389, 47.06674 ] } },
{ "type": "Feature", "properties": { "lon": 8.61594, "lat": 46.93914, "typ": "Fahnenmast" }, "geometry": { "type": "Point", "coordinates": [ 8.61594, 46.93914 ] } },
{ "type": "Feature", "properties": { "lon": 8.62989, "lat": 46.87661, "typ": "Fahnenmast" }, "geometry": { "type": "Point", "coordinates": [ 8.62989, 46.87661 ] } },
{ "type": "Feature", "properties": { "lon": 8.63395, "lat": 46.86469, "typ": "Balkon/Fassade" }, "geometry": { "type": "Point", "coordinates": [ 8.63395, 46.86469 ] } },
{ "type": "Feature", "properties": { "lon": 8.52487, "lat": 47.06609, "typ": "Fahnenmast" }, "geometry": { "type": "Point", "coordinates": [ 8.52487, 47.06609 ] } },
{ "type": "Feature", "properties": { "lon": 7.96509, "lat": 47.23763, "typ": "Fahnenmast" }, "geometry": { "type": "Point", "coordinates": [ 7.96509, 47.23763 ] } },
{ "type": "Feature", "properties": { "lon": 8.668, "lat": 46.87542, "typ": "Fahnenmast" }, "geometry": { "type": "Point", "coordinates": [ 8.668, 46.87542 ] } },
{ "type": "Feature", "properties": { "lon": 8.66843, "lat": 46.8748, "typ": "Fahnenmast" }, "geometry": { "type": "Point", "coordinates": [ 8.66843, 46.8748 ] } },
{ "type": "Feature", "properties": { "lon": 8.57821, "lat": 46.9338, "typ": "Fahnenmast" }, "geometry": { "type": "Point", "coordinates": [ 8.57821, 46.9338 ] } },
{ "type": "Feature", "properties": { "lon": 8.57898, "lat": 46.93136, "typ": "Fahnenmast" }, "geometry": { "type": "Point", "coordinates": [ 8.57898, 46.93136 ] } },
{ "type": "Feature", "properties": { "lon": 8.5787, "lat": 46.93627, "typ": "Fahnenmast" }, "geometry": { "type": "Point", "coordinates": [ 8.5787, 46.93627 ] } },
{ "type": "Feature", "properties": { "lon": 8.58052, "lat": 46.937, "typ": "Fahnenmast" }, "geometry": { "type": "Point", "coordinates": [ 8.58052, 46.937 ] } },
{ "type": "Feature", "properties": { "lon": 8.65935, "lat": 46.87518, "typ": "Fahnenmast" }, "geometry": { "type": "Point", "coordinates": [ 8.65935, 46.87518 ] } }
]
}
